*******************************************************************************
 Revised: April 12, 2021       Solar System Barycenter                        0

 Dynamical point 
 ---------------
 The center of mass for the solar system. See object 10 for Sun ephemeris.
*******************************************************************************


*******************************************************************************
Ephemeris / WWW_USER Wed Feb  2 11:06:06 2022 Pasadena, USA      / Horizons    
*******************************************************************************
Target body name: Solar System Barycenter (0)     {source: DE441}
Center body name: Sun (10)                        {source: DE441}
Center-site name: BODYCENTRIC
*******************************************************************************
Start time      : A.D. 2031-Jan-01 00:09:00.0000 UT      
Stop  time      : A.D. 2031-Dec-31 23:59:00.0000 UT      
Step-size       : 40 minutes
*******************************************************************************
Target pole/equ : MARSIAU                         {East-longitude positive}
Target radii    : 696000.0 x 696000.0 x 696000.0 k{Equator, meridian, pole}    
Center geodetic : 0.00000000,0.00000000,0.0000000 {E-lon(deg),Lat(deg),Alt(km)}
Center cylindric: 0.00000000,0.00000000,0.0000000 {E-lon(deg),Dxy(km),Dz(km)}
Center pole/equ : IAU_SUN                         {East-longitude positive}
Center radii    : 696000.0 x 696000.0 x 696000.0 k{Equator, meridian, pole}    
Target primary  : Sun
Vis. interferer : None
Rel. light bend : Sun                             {source: DE441}
Rel. lght bnd GM: 1.3271E+11 km^3/s^2                                          
Atmos refraction: NO (AIRLESS)
RA format       : HMS
Time format     : CAL 
EOP file        : eop.220131.p220426                                           
EOP coverage    : DATA-BASED 1962-JAN-20 TO 2022-JAN-31. PREDICTS-> 2022-APR-25
Units conversion: 1 au= 149597870.700 km, c= 299792.458 km/s, 1 day= 86400.0 s 
Table cut-offs 1: Elevation (-90.0deg=NO ),Airmass     n.a.    , Daylight (NO )
Table cut-offs 2: Solar elongation (  0.0,180.0=NO ),Local Hour Angle( 0.0=NO )
Table cut-offs 3: RA/DEC angular rate (     0.0=NO )                           
*******************************************************************************
 Date__(UT)__HR:MN     R.A._____(ICRF)_____DEC             delta      deldot
****************************************************************************
$$SOE
 2031-Oct-08 05:29     22 19 30.82 -12 29 17.3  0.00275887681062   0.0069170
 2031-Oct-08 06:09     22 19 31.30 -12 29 14.6  0.00275898777944   0.0069169
 2031-Oct-08 06:49     22 19 31.77 -12 29 11.8  0.00275909874730   0.0069169
 2031-Oct-08 07:29     22 19 32.25 -12 29 09.0  0.00275920971421   0.0069168
 2031-Oct-08 08:09     22 19 32.72 -12 29 06.3  0.00275932068018   0.0069168
 2031-Oct-08 08:49     22 19 33.20 -12 29 03.5  0.00275943164519   0.0069167
 2031-Oct-08 09:29     22 19 33.67 -12 29 00.7  0.00275954260925   0.0069166
 2031-Oct-08 10:09     22 19 34.15 -12 28 58.0  0.00275965357237   0.0069166
 2031-Oct-08 10:49     22 19 34.63 -12 28 55.2  0.00275976453453   0.0069165
 2031-Oct-08 11:29     22 19 35.10 -12 28 52.5  0.00275987549575   0.0069165
 2031-Oct-08 12:09     22 19 35.58 -12 28 49.7  0.00275998645603   0.0069164
 2031-Oct-08 12:49     22 19 36.05 -12 28 46.9  0.00276009741535   0.0069163
 2031-Oct-08 13:29     22 19 36.53 -12 28 44.2  0.00276020837373   0.0069163
 2031-Oct-08 14:09     22 19 37.00 -12 28 41.4  0.00276031933117   0.0069162
 2031-Oct-08 14:49     22 19 37.48 -12 28 38.7  0.00276043028766   0.0069162
 2031-Oct-08 15:29     22 19 37.95 -12 28 35.9  0.00276054124320   0.0069161
 2031-Oct-08 16:09     22 19 38.43 -12 28 33.1  0.00276065219781   0.0069160
 2031-Oct-08 16:49     22 19 38.90 -12 28 30.4  0.00276076315147   0.0069160
 2031-Oct-08 17:29     22 19 39.38 -12 28 27.6  0.00276087410418   0.0069159
 2031-Oct-08 18:09     22 19 39.85 -12 28 24.9  0.00276098505596   0.0069159
 2031-Oct-08 18:49     22 19 40.33 -12 28 22.1  0.00276109600679   0.0069158
 2031-Oct-08 19:29     22 19 40.80 -12 28 19.3  0.00276120695668   0.0069157
 2031-Oct-08 20:09     22 19 41.27 -12 28 16.6  0.00276131790564   0.0069157
 2031-Oct-08 20:49     22 19 41.75 -12 28 13.8  0.00276142885365   0.0069156
 2031-Oct-08 21:29     22 19 42.22 -12 28 11.0  0.00276153980072   0.0069156
 2031-Oct-08 22:09     22 19 42.70 -12 28 08.3  0.00276165074686   0.0069155
 2031-Oct-08 22:49     22 19 43.17 -12 28 05.5  0.00276176169205   0.0069155
 2031-Oct-08 23:29     22 19 43.65 -12 28 02.8  0.00276187263631   0.0069154
 2031-Oct-09 00:09     22 19 44.12 -12 28 00.0  0.00276198357964   0.0069153
 2031-Oct-09 00:49     22 19 44.60 -12 27 57.2  0.00276209452202   0.0069153
 2031-Oct-09 01:29     22 19 45.07 -12 27 54.5  0.00276220546347   0.0069152
 2031-Oct-09 02:09     22 19 45.55 -12 27 51.7  0.00276231640399   0.0069152
 2031-Oct-09 02:49     22 19 46.02 -12 27 49.0  0.00276242734357   0.0069151
 2031-Oct-09 03:29     22 19 46.50 -12 27 46.2  0.00276253828221   0.0069150
 2031-Oct-09 04:09     22 19 46.97 -12 27 43.4  0.00276264921993   0.0069150
 2031-Oct-09 04:49     22 19 47.45 -12 27 40.7  0.00276276015671   0.0069149
 2031-Oct-09 05:29     22 19 47.92 -12 27 37.9  0.00276287109255   0.0069149
 2031-Oct-09 06:09     22 19 48.40 -12 27 35.2  0.00276298202747   0.0069148
 2031-Oct-09 06:49     22 19 48.87 -12 27 32.4  0.00276309296145   0.0069148
 2031-Oct-09 07:29     22 19 49.34 -12 27 29.6  0.00276320389451   0.0069147
 2031-Oct-09 08:09     22 19 49.82 -12 27 26.9  0.00276331482663   0.0069146
 2031-Oct-09 08:49     22 19 50.29 -12 27 24.1  0.00276342575782   0.0069146
 2031-Oct-09 09:29     22 19 50.77 -12 27 21.4  0.00276353668809   0.0069145
 2031-Oct-09 10:09     22 19 51.24 -12 27 18.6  0.00276364761743   0.0069145
 2031-Oct-09 10:49     22 19 51.72 -12 27 15.8  0.00276375854583   0.0069144
 2031-Oct-09 11:29     22 19 52.19 -12 27 13.1  0.00276386947332   0.0069144
 2031-Oct-09 12:09     22 19 52.67 -12 27 10.3  0.00276398039987   0.0069143
 2031-Oct-09 12:49     22 19 53.14 -12 27 07.6  0.00276409132550   0.0069142
 2031-Oct-09 13:29     22 19 53.61 -12 27 04.8  0.00276420225020   0.0069142
 2031-Oct-09 14:09     22 19 54.09 -12 27 02.0  0.00276431317398   0.0069141
 2031-Oct-09 14:49     22 19 54.56 -12 26 59.3  0.00276442409683   0.0069141
 2031-Oct-09 15:29     22 19 55.04 -12 26 56.5  0.00276453501876   0.0069140
 2031-Oct-09 16:09     22 19 55.51 -12 26 53.8  0.00276464593977   0.0069139
 2031-Oct-09 16:49     22 19 55.99 -12 26 51.0  0.00276475685985   0.0069139
 2031-Oct-09 17:29     22 19 56.46 -12 26 48.3  0.00276486777901   0.0069138
 2031-Oct-09 18:09     22 19 56.94 -12 26 45.5  0.00276497869725   0.0069138
 2031-Oct-09 18:49     22 19 57.41 -12 26 42.7  0.00276508961457   0.0069137
 2031-Oct-09 19:29     22 19 57.88 -12 26 40.0  0.00276520053097   0.0069137
 2031-Oct-09 20:09     22 19 58.36 -12 26 37.2  0.00276531144645   0.0069136
 2031-Oct-09 20:49     22 19 58.83 -12 26 34.5  0.00276542236101   0.0069135
 2031-Oct-09 21:29     22 19 59.31 -12 26 31.7  0.00276553327465   0.0069135
 2031-Oct-09 22:09     22 19 59.78 -12 26 28.9  0.00276564418737   0.0069134
 2031-Oct-09 22:49     22 20 00.25 -12 26 26.2  0.00276575509918   0.0069134
 2031-Oct-09 23:29     22 20 00.73 -12 26 23.4  0.00276586601007   0.0069133
 2031-Oct-10 00:09     22 20 01.20 -12 26 20.7  0.00276597692004   0.0069133
 2031-Oct-10 00:49     22 20 01.68 -12 26 17.9  0.00276608782909   0.0069132
 2031-Oct-10 01:29     22 20 02.15 -12 26 15.1  0.00276619873723   0.0069131
 2031-Oct-10 02:09     22 20 02.62 -12 26 12.4  0.00276630964446   0.0069131
 2031-Oct-10 02:49     22 20 03.10 -12 26 09.6  0.00276642055077   0.0069130
 2031-Oct-10 03:29     22 20 03.57 -12 26 06.9  0.00276653145617   0.0069130
 2031-Oct-10 04:09     22 20 04.05 -12 26 04.1  0.00276664236066   0.0069129
 2031-Oct-10 04:49     22 20 04.52 -12 26 01.4  0.00276675326423   0.0069129
 2031-Oct-10 05:29     22 20 04.99 -12 25 58.6  0.00276686416689   0.0069128
 2031-Oct-10 06:09     22 20 05.47 -12 25 55.8  0.00276697506864   0.0069127
 2031-Oct-10 06:49     22 20 05.94 -12 25 53.1  0.00276708596948   0.0069127
 2031-Oct-10 07:29     22 20 06.42 -12 25 50.3  0.00276719686941   0.0069126
 2031-Oct-10 08:09     22 20 06.89 -12 25 47.6  0.00276730776843   0.0069126
 2031-Oct-10 08:49     22 20 07.36 -12 25 44.8  0.00276741866654   0.0069125
 2031-Oct-10 09:29     22 20 07.84 -12 25 42.1  0.00276752956375   0.0069125
 2031-Oct-10 10:09     22 20 08.31 -12 25 39.3  0.00276764046004   0.0069124
 2031-Oct-10 10:49     22 20 08.79 -12 25 36.5  0.00276775135543   0.0069124
 2031-Oct-10 11:29     22 20 09.26 -12 25 33.8  0.00276786224991   0.0069123
 2031-Oct-10 12:09     22 20 09.73 -12 25 31.0  0.00276797314349   0.0069122
 2031-Oct-10 12:49     22 20 10.21 -12 25 28.3  0.00276808403616   0.0069122
 2031-Oct-10 13:29     22 20 10.68 -12 25 25.5  0.00276819492793   0.0069121
 2031-Oct-10 14:09     22 20 11.15 -12 25 22.7  0.00276830581879   0.0069121
 2031-Oct-10 14:49     22 20 11.63 -12 25 20.0  0.00276841670875   0.0069120
 2031-Oct-10 15:29     22 20 12.10 -12 25 17.2  0.00276852759781   0.0069120
 2031-Oct-10 16:09     22 20 12.58 -12 25 14.5  0.00276863848596   0.0069119
 2031-Oct-10 16:49     22 20 13.05 -12 25 11.7  0.00276874937321   0.0069118
 2031-Oct-10 17:29     22 20 13.52 -12 25 09.0  0.00276886025956   0.0069118
 2031-Oct-10 18:09     22 20 14.00 -12 25 06.2  0.00276897114501   0.0069117
 2031-Oct-10 18:49     22 20 14.47 -12 25 03.4  0.00276908202956   0.0069117
 2031-Oct-10 19:29     22 20 14.94 -12 25 00.7  0.00276919291321   0.0069116
 2031-Oct-10 20:09     22 20 15.42 -12 24 57.9  0.00276930379596   0.0069116
 2031-Oct-10 20:49     22 20 15.89 -12 24 55.2  0.00276941467782   0.0069115
 2031-Oct-10 21:29     22 20 16.36 -12 24 52.4  0.00276952555877   0.0069115
